     2.100          NAVIGATION                              RINEX VERSION / TYPE
fic2rin                                 04/04/2012 00:04:47 PGM / RUN BY / DATE
                                                            END OF HEADER
15 12  4  3  6  0  0.0 -.915848650038D-04  .227373675443D-12  .000000000000D+00
     .230000000000D+02 -.539375000000D+02  .489163232755D-08  .281707301673D+01
    -.272877514362D-05  .438761455007D-02  .863708555698D-05  .515379187393D+04
     .194400000000D+06 -.186264514923D-07  .184617945804D+01 -.242143869400D-07
     .945797261944D+00  .205531250000D+03  .712647449198D-01 -.830427447779D-08
    -.478948521557D-09  .100000000000D+01  .168200000000D+04  .000000000000D+00
     .240000000000D+01  .000000000000D+00 -.102445483208D-07  .230000000000D+02
     .187206000000D+06  .400000000000D+01
16 12  4  3  6  0  0.0 -.229904428124D-03 -.147792889038D-11  .000000000000D+00
     .820000000000D+02  .104062500000D+02  .451947396852D-08 -.161621053244D+01
     .286847352982D-06  .659492320847D-02  .393576920033D-05  .515364074898D+04
     .194400000000D+06  .540167093277D-07 -.228011128079D+01 -.119209289551D-06
     .979848336262D+00  .313843750000D+03 -.569882297885D-01 -.828998816843D-08
     .268225458381D-09  .100000000000D+01  .168200000000D+04  .000000000000D+00
     .240000000000D+01  .000000000000D+00 -.977888703346D-08  .820000000000D+02
     .187206000000D+06  .400000000000D+01
17 12  4  3  6  0  0.0  .138417351991D-03 -.250111042988D-11  .000000000000D+00
     .105000000000D+03 -.926875000000D+02  .453554606656D-08 -.260404874501D+01
    -.471808016300D-05  .728761276696D-02  .938773155212D-05  .515366653442D+04
     .194400000000D+06  .147148966789D-06 -.123891141967D+01 -.115483999252D-06
     .962407488363D+00  .195718750000D+03 -.231076460499D+01 -.808890836407D-08
    -.350371737246D-09  .100000000000D+01  .168200000000D+04  .000000000000D+00
     .240000000000D+01  .000000000000D+00 -.107102096081D-07  .105000000000D+03
     .187206000000D+06  .400000000000D+01
18 12  4  3  6  0  0.0  .189184676856D-03  .181898940355D-11  .000000000000D+00
     .800000000000D+02  .355000000000D+02  .563702051882D-08 -.112209693559D+01
     .192224979401D-05  .130250471411D-01  .411085784435D-05  .515367419243D+04
     .194400000000D+06  .260770320892D-06  .830260781637D+00  .281259417534D-06
     .930204809576D+00  .284343750000D+03 -.218825182970D+01 -.881786729957D-08
     .325013538118D-10  .100000000000D+01  .168200000000D+04  .000000000000D+00
     .240000000000D+01  .000000000000D+00 -.107102096081D-07  .800000000000D+02
     .187206000000D+06  .400000000000D+01
19 12  4  3  6  0  0.0 -.251831952482D-03 -.375166564481D-11  .000000000000D+00
     .180000000000D+02 -.800937500000D+02  .460769192886D-08  .285478007401D+01
    -.415183603764D-05  .809192401357D-02  .909715890884D-05  .515377277565D+04
     .194400000000D+06 -.143423676491D-06 -.118570350478D+01 -.149011611938D-07
     .959831225257D+00  .204500000000D+03  .143931139447D+00 -.799711882638D-08
    -.302512600864D-09  .100000000000D+01  .168200000000D+04  .000000000000D+00
     .240000000000D+01  .000000000000D+00 -.144354999065D-07  .180000000000D+02
     .187206000000D+06  .400000000000D+01
20 12  4  3  6  0  0.0  .632419250906D-04  .000000000000D+00  .000000000000D+00
     .630000000000D+02  .340937500000D+02  .564416367350D-08 -.760138119307D+00
     .179186463356D-05  .508435047232D-02  .454671680927D-05  .515372689247D+04
     .194400000000D+06 -.409781932831D-07  .776493932569D+00  .596046447754D-07
     .930665952075D+00  .275218750000D+03  .128960282872D+01 -.884679707604D-08
     .835749098019D-10  .100000000000D+01  .168200000000D+04  .000000000000D+00
     .240000000000D+01  .000000000000D+00 -.791624188423D-08  .630000000000D+02
     .187206000000D+06  .400000000000D+01
21 12  4  3  6  0  0.0 -.214810017496D-03 -.250111042988D-11  .000000000000D+00
     .740000000000D+02  .221562500000D+02  .523307512144D-08 -.660002689018D-01
     .132434070110D-05  .188836862799D-01  .108405947685D-04  .515363316727D+04
     .194400000000D+06 -.186264514923D-07 -.220738831230D+00  .216066837311D-06
     .931879863943D+00  .155281250000D+03 -.227185028480D+01 -.866071789652D-08
     .161792453591D-09  .100000000000D+01  .168200000000D+04  .000000000000D+00
     .240000000000D+01  .000000000000D+00 -.111758708954D-07  .740000000000D+02
     .187206000000D+06  .400000000000D+01
23 12  4  3  6  0  0.0  .218349508941D-03 -.352429196937D-11  .000000000000D+00
     .520000000000D+02 -.395312500000D+02  .450518765915D-08  .244251326780D+01
    -.203773379326D-05  .767984928098D-02  .881403684616D-05  .515365227890D+04
     .194400000000D+06 -.132247805595D-06  .188110461567D+01  .651925802231D-07
     .960514851265D+00  .210906250000D+03 -.302805086647D+01 -.804962101331D-08
    -.434303804782D-09  .100000000000D+01  .168200000000D+04  .000000000000D+00
     .240000000000D+01  .000000000000D+00 -.200234353542D-07  .520000000000D+02
     .187206000000D+06  .400000000000D+01
25 12  4  3  6  0  0.0  .326903536916D-04  .341060513165D-12  .000000000000D+00
     .560000000000D+02  .248750000000D+02  .486591697069D-08 -.494428131556D+00
     .127963721752D-05  .145952613093D-02  .362470746040D-05  .515373082733D+04
     .194400000000D+06 -.558793544769D-08 -.233167147008D+01  .633299350739D-07
     .967866705110D+00  .315281250000D+03  .605422129805D+00 -.845499504162D-08
     .212866009581D-09  .100000000000D+01  .168200000000D+04  .000000000000D+00
     .240000000000D+01  .000000000000D+00  .558793544769D-08  .560000000000D+02
     .187206000000D+06  .400000000000D+01
26 12  4  3  6  0  0.0 -.248690135777D-03 -.545696821064D-10  .000000000000D+00
     .680000000000D+02 -.505312500000D+02  .382158775590D-08  .229927019285D+01
    -.277906656265D-05  .209617632208D-01  .100936740637D-04  .515366058731D+04
     .194400000000D+06  .208616256714D-06  .195270514418D+01 -.344589352608D-06
     .983645190919D+00  .193468750000D+03  .118308701143D+01 -.752995651006D-08
    -.449661587353D-09  .100000000000D+01  .168200000000D+04  .000000000000D+00
     .240000000000D+01  .000000000000D+00 -.605359673500D-08  .680000000000D+02
     .187206000000D+06  .400000000000D+01
27 12  4  3  6  0  0.0  .373445916921D-03  .397903932026D-11  .000000000000D+00
     .145000000000D+03  .650937500000D+02  .370551149228D-08 -.305847138920D+01
     .330992043018D-05  .217953858664D-01  .117626041174D-04  .515376180267D+04
     .194400000000D+06  .199303030968D-06  .287650805308D+01  .324100255966D-06
     .982233194092D+00  .154343750000D+03 -.110185629217D+01 -.742280918980D-08
     .320370487574D-09  .100000000000D+01  .168200000000D+04  .000000000000D+00
     .240000000000D+01  .000000000000D+00 -.419095158577D-08  .145000000000D+03
     .187206000000D+06  .400000000000D+01
28 12  4  3  6  0  0.0  .129353720695D-03  .409272615798D-11  .000000000000D+00
     .470000000000D+02  .737500000000D+01  .448661545697D-08 -.202807645961D+01
     .579282641411D-06  .178674635245D-01  .317953526974D-05  .515370683289D+04
     .194400000000D+06  .223517417908D-06 -.227330397480D+01  .782310962677D-07
     .978194549798D+00  .321125000000D+03 -.182968027734D+01 -.808283668259D-08
     .285011871888D-09  .100000000000D+01  .168200000000D+04  .000000000000D+00
     .240000000000D+01  .000000000000D+00 -.107102096081D-07  .470000000000D+02
     .187206000000D+06  .400000000000D+01
29 12  4  3  6  0  0.0  .299735460430D-03  .352429196937D-11  .000000000000D+00
     .560000000000D+02 -.952187500000D+02  .464912222603D-08  .189732548791D+00
    -.485964119434D-05  .232547475025D-02  .875256955624D-05  .515360989380D+04
     .194400000000D+06  .558793544769D-08 -.123036534044D+01 -.782310962677D-07
     .962937437752D+00  .215968750000D+03 -.116400735296D+01 -.819748431527D-08
    -.350014579512D-09  .100000000000D+01  .168200000000D+04  .000000000000D+00
     .240000000000D+01  .000000000000D+00 -.931322574615D-08  .560000000000D+02
     .187206000000D+06  .400000000000D+01
30 12  4  3  6  0  0.0 -.112831592560D-03 -.162572177942D-10  .000000000000D+00
     .980000000000D+02  .337187500000D+02  .487234580990D-08 -.273379800404D+01
     .159628689289D-05  .109339234186D-01  .358559191227D-05  .515363376427D+04
     .194400000000D+06  .182539224625D-06 -.242205821617D+01  .111758708954D-06
     .959179150005D+00  .304250000000D+03  .155581905635D+01 -.830570310873D-08
     .345371528968D-09  .100000000000D+01  .168200000000D+04  .000000000000D+00
     .240000000000D+02  .000000000000D+00 -.419095158577D-08  .980000000000D+02
     .187206000000D+06  .400000000000D+01
31 12  4  3  6  0  0.0  .226862728596D-03  .432009983342D-11  .000000000000D+00
     .580000000000D+02  .476875000000D+02  .387337562736D-08  .843960610073D+00
     .256486237049D-05  .791497179307D-02  .104364007711D-04  .515362481117D+04
     .194400000000D+06  .242143869400D-07  .293201047158D+01 -.206753611565D-06
     .981086251689D+00  .186656250000D+03 -.875714465594D+00 -.783925510787D-08
     .299298181256D-09  .100000000000D+01  .168200000000D+04  .000000000000D+00
     .240000000000D+01  .000000000000D+00 -.130385160446D-07  .580000000000D+02
     .187206000000D+06  .400000000000D+01
32 12  4  3  6  0  0.0 -.428160652518D-03 -.454747350886D-11  .000000000000D+00
     .810000000000D+02  .238125000000D+02  .506128225129D-08  .144975979531D+01
     .116787850857D-05  .118323488859D-01  .412389636040D-05  .515370738220D+04
     .194400000000D+06  .197440385818D-06  .907745113993D+00  .122934579849D-06
     .952076657860D+00  .291656250000D+03 -.596483934407D+00 -.842249368781D-08
    -.914323799542D-10  .100000000000D+01  .168200000000D+04  .000000000000D+00
     .240000000000D+01  .000000000000D+00 -.279396772385D-08  .810000000000D+02
     .187206000000D+06  .400000000000D+01
